{"features": [{"geometry": {"coordinates": [-46.851822, -23.6502287], "type": "Point"}, "properties": {"categoria": "turismo", "cor": "#7b1fa2", "datum": "SIRGAS 2000", "fonte": "Atlas original; checar Prefeitura/Feira", "letra": "T", "nome": "Feira", "precisao": "pontual"}, "type": "Feature"}, {"geometry": {"coordinates": [-46.8516345, -23.6495006], "type": "Point"}, "properties": {"categoria": "cultura", "cor": "#1976d2", "datum": "SIRGAS 2000", "fonte": "Atlas original", "letra": "C", "nome": "Museu Arte Sacra", "precisao": "pontual"}, "type": "Feature"}, {"geometry": {"coordinates": [-46.85227, -23.649235], "type": "Point"}, "properties": {"categoria": "cultura", "cor": "#1976d2", "datum": "SIRGAS 2000", "fonte": "Atlas original", "letra": "C", "nome": "Centro Cultural", "precisao": "pontual"}, "type": "Feature"}, {"geometry": {"coordinates": [-46.8545, -23.6435], "type": "Point"}, "properties": {"categoria": "lazer", "cor": "#2e7d32", "datum": "SIRGAS 2000", "fonte": "Localização aproximada — verificar em campo", "letra": "L", "nome": "Parque Rizzo aprox", "precisao": "aproximada"}, "type": "Feature"}, {"geometry": {"coordinates": [-46.856, -23.651], "type": "Point"}, "properties": {"categoria": "cultura", "cor": "#1976d2", "datum": "SIRGAS 2000", "fonte": "Localização aproximada — verificar em campo", "letra": "C", "nome": "Memorial Sakai aprox", "precisao": "aproximada"}, "type": "Feature"}, {"geometry": {"coordinates": [-46.851, -23.655], "type": "Point"}, "properties": {"categoria": "economia", "cor": "#ef6c00", "datum": "SIRGAS 2000", "fonte": "Eixo comercial — delimitação esquemática por ponto", "letra": "E", "nome": "Corredor Móveis", "precisao": "aproximada"}, "type": "Feature"}, {"geometry": {"coordinates": [-46.835, -23.638], "type": "Point"}, "properties": {"categoria": "economia", "cor": "#ef6c00", "datum": "SIRGAS 2000", "fonte": "Polo industrial — ponto representativo", "letra": "E", "nome": "Pq Industrial", "precisao": "aproximada"}, "type": "Feature"}, {"geometry": {"coordinates": [-46.825, -23.625], "type": "Point"}, "properties": {"categoria": "economia", "cor": "#ef6c00", "datum": "SIRGAS 2000", "fonte": "Ponto representativo", "letra": "E", "nome": "Vista Alegre", "precisao": "aproximada"}, "type": "Feature"}, {"geometry": {"coordinates": [-46.8535, -23.649], "type": "Point"}, "properties": {"categoria": "saúde", "cor": "#d32f2f", "datum": "SIRGAS 2000", "fonte": "Registro histórico — checar CNES/DataSUS vigente", "letra": "S", "nome": "UBS Centro ex", "precisao": "histórica"}, "type": "Feature"}, {"geometry": {"coordinates": [-46.82, -23.68], "type": "Point"}, "properties": {"categoria": "saúde", "cor": "#d32f2f", "datum": "SIRGAS 2000", "fonte": "Registro histórico — checar CNES/DataSUS vigente", "letra": "S", "nome": "UBS Sta Rita ex", "precisao": "histórica"}, "type": "Feature"}], "metadata": {"atualizado": "2026-09-22", "datum": "SIRGAS 2000 (EPSG:4674)", "nota_metodologica": "Códigos de legenda: C cultura, T turismo/feira, L lazer, E economia, S saúde. Itens 'aprox'/'ex' exigem validação.", "titulo": "Equipamentos e centralidades — pontos de referência"}, "name": "equipamentos_embu", "type": "FeatureCollection"}
