{"features": [{"geometry": {"coordinates": [[[-46.8875, -23.6678], [-46.8765, -23.6778], [-46.8718, -23.6831], [-46.8597, -23.6835], [-46.8493, -23.6853], [-46.8376, -23.6791], [-46.8229, -23.6779], [-46.8204, -23.6858], [-46.8118, -23.6873], [-46.8015, -23.6854], [-46.7955, -23.6703], [-46.7934, -23.6582], [-46.7927, -23.6472], [-46.8216, -23.6359], [-46.8101, -23.6253], [-46.8127, -23.6136], [-46.82, -23.6149], [-46.8297, -23.6228], [-46.8396, -23.6273], [-46.8488, -23.6195], [-46.8559, -23.6136], [-46.8629, -23.6155], [-46.8695, -23.6239], [-46.8798, -23.6193], [-46.8878, -23.6245], [-46.8957, -23.6285], [-46.9047, -23.6309], [-46.9081, -23.6363], [-46.9097, -23.6442], [-46.9151, -23.6526], [-46.9183, -23.6568], [-46.9115, -23.6632], [-46.9026, -23.6675], [-46.8875, -23.6678]]], "type": "Polygon"}, "properties": {"area_km2": 70.264, "codigo_ibge": "3515004", "datum": "SIRGAS 2000", "densidade_2022": 3561.05, "epsg": 4674, "fonte": "Polígono simplificado de trabalho; para uso oficial consultar malha municipal IBGE", "idhm_2010": 0.735, "nome": "Embu das Artes 3515004", "pib_pc_2023": 68971.96, "pop_2022": 250691, "popup": "<b>Embu das Artes 3515004</b><br>70,264 km² • 250.691 hab 2022 • 3.561 hab/km²<br>PIB pc R$68.971 2023 • IDHM 0,735<br>Fonte IBGE Cidades@", "precisao": "aproximada"}, "type": "Feature"}], "metadata": {"atualizado": "2026-09-22", "datum": "SIRGAS 2000 (EPSG:4674)", "fonte_limite": "Vetorização de trabalho a partir do atlas original; validar com IBGE/Seade", "nota_metodologica": "Geometria simplificada para fins didáticos. Não substitui base oficial.", "titulo": "Limite municipal de Embu das Artes — versão didática"}, "name": "limite_embu", "type": "FeatureCollection"}
