{"type": "FeatureCollection", "name": "perfil_n_s_embu", "metadata": {"titulo": "Perfil topográfico N-S Centro–Mananciais — valores versionados", "transecto": "Transecto N-S Centro–Mananciais (data/transectos.geojson)", "fonte_elevacao": "OpenTopoData v1 / SRTM 90m (Shuttle Radar Topography Mission)", "dataset": "srtm90m", "interpolacao": "cubic", "datum_horizontal": "SIRGAS 2000 (EPSG:4674)", "datum_vertical": "EGM96 (geoide do SRTM) — não é nível do mar local nem SIRGAS", "resolucao": "~90 m; micro-relevo não representado", "amostras": 60, "extensao_km": 6.2229, "nota_metodologica": "Amostragem única em 2026-09-23; valores congelados para uso offline e citação. Linha esquemática — não usar para obra/drenagem."}, "features": [{"type": "Feature", "geometry": {"type": "Point", "coordinates": [-46.8523, -23.6492]}, "properties": {"seq": 0, "dist_km": 0.0, "ele_m": 784.0, "dataset": "srtm90m"}}, {"type": "Feature", "geometry": {"type": "Point", "coordinates": [-46.8517809704895, -23.650020790853812]}, "properties": {"seq": 1, "dist_km": 0.1055, "ele_m": 786.0, "dataset": "srtm90m"}}, {"type": "Feature", "geometry": {"type": "Point", "coordinates": [-46.851261940979, -23.650841581707624]}, "properties": {"seq": 2, "dist_km": 0.2109, "ele_m": 778.0, "dataset": "srtm90m"}}, {"type": "Feature", "geometry": {"type": "Point", "coordinates": [-46.8507429114685, -23.651662372561436]}, "properties": {"seq": 3, "dist_km": 0.3164, "ele_m": 777.0, "dataset": "srtm90m"}}, {"type": "Feature", "geometry": {"type": "Point", "coordinates": [-46.850223881958, -23.652483163415248]}, "properties": {"seq": 4, "dist_km": 0.4219, "ele_m": 785.0, "dataset": "srtm90m"}}, {"type": "Feature", "geometry": {"type": "Point", "coordinates": [-46.84970485244751, -23.65330395426906]}, "properties": {"seq": 5, "dist_km": 0.5274, "ele_m": 795.0, "dataset": "srtm90m"}}, {"type": "Feature", "geometry": {"type": "Point", "coordinates": [-46.84918582293701, -23.654124745122868]}, "properties": {"seq": 6, "dist_km": 0.6328, "ele_m": 802.0, "dataset": "srtm90m"}}, {"type": "Feature", "geometry": {"type": "Point", "coordinates": [-46.84866679342651, -23.65494553597668]}, "properties": {"seq": 7, "dist_km": 0.7383, "ele_m": 814.0, "dataset": "srtm90m"}}, {"type": "Feature", "geometry": {"type": "Point", "coordinates": [-46.84814776391601, -23.65576632683049]}, "properties": {"seq": 8, "dist_km": 0.8438, "ele_m": 831.0, "dataset": "srtm90m"}}, {"type": "Feature", "geometry": {"type": "Point", "coordinates": [-46.84754256379981, -23.656533675566884]}, "properties": {"seq": 9, "dist_km": 0.9493, "ele_m": 839.0, "dataset": "srtm90m"}}, {"type": "Feature", "geometry": {"type": "Point", "coordinates": [-46.84690306773394, -23.657279754310398]}, "properties": {"seq": 10, "dist_km": 1.0547, "ele_m": 831.0, "dataset": "srtm90m"}}, {"type": "Feature", "geometry": {"type": "Point", "coordinates": [-46.846263571668075, -23.658025833053912]}, "properties": {"seq": 11, "dist_km": 1.1602, "ele_m": 819.0, "dataset": "srtm90m"}}, {"type": "Feature", "geometry": {"type": "Point", "coordinates": [-46.8456240756022, -23.658771911797427]}, "properties": {"seq": 12, "dist_km": 1.2657, "ele_m": 819.0, "dataset": "srtm90m"}}, {"type": "Feature", "geometry": {"type": "Point", "coordinates": [-46.84498457953634, -23.65951799054094]}, "properties": {"seq": 13, "dist_km": 1.3711, "ele_m": 833.0, "dataset": "srtm90m"}}, {"type": "Feature", "geometry": {"type": "Point", "coordinates": [-46.844345083470465, -23.660264069284455]}, "properties": {"seq": 14, "dist_km": 1.4766, "ele_m": 843.0, "dataset": "srtm90m"}}, {"type": "Feature", "geometry": {"type": "Point", "coordinates": [-46.8437055874046, -23.66101014802797]}, "properties": {"seq": 15, "dist_km": 1.5821, "ele_m": 841.0, "dataset": "srtm90m"}}, {"type": "Feature", "geometry": {"type": "Point", "coordinates": [-46.84306609133873, -23.661756226771484]}, "properties": {"seq": 16, "dist_km": 1.6876, "ele_m": 837.0, "dataset": "srtm90m"}}, {"type": "Feature", "geometry": {"type": "Point", "coordinates": [-46.84242659527286, -23.662502305514998]}, "properties": {"seq": 17, "dist_km": 1.793, "ele_m": 849.0, "dataset": "srtm90m"}}, {"type": "Feature", "geometry": {"type": "Point", "coordinates": [-46.841750697573715, -23.663218139622995]}, "properties": {"seq": 18, "dist_km": 1.8985, "ele_m": 854.0, "dataset": "srtm90m"}}, {"type": "Feature", "geometry": {"type": "Point", "coordinates": [-46.841001860903994, -23.663873371709002]}, "properties": {"seq": 19, "dist_km": 2.004, "ele_m": 846.0, "dataset": "srtm90m"}}, {"type": "Feature", "geometry": {"type": "Point", "coordinates": [-46.84025302423427, -23.66452860379501]}, "properties": {"seq": 20, "dist_km": 2.1095, "ele_m": 844.0, "dataset": "srtm90m"}}, {"type": "Feature", "geometry": {"type": "Point", "coordinates": [-46.83950418756455, -23.665183835881017]}, "properties": {"seq": 21, "dist_km": 2.2149, "ele_m": 841.0, "dataset": "srtm90m"}}, {"type": "Feature", "geometry": {"type": "Point", "coordinates": [-46.83875535089483, -23.665839067967024]}, "properties": {"seq": 22, "dist_km": 2.3204, "ele_m": 821.0, "dataset": "srtm90m"}}, {"type": "Feature", "geometry": {"type": "Point", "coordinates": [-46.83800651422511, -23.66649430005303]}, "properties": {"seq": 23, "dist_km": 2.4259, "ele_m": 826.0, "dataset": "srtm90m"}}, {"type": "Feature", "geometry": {"type": "Point", "coordinates": [-46.837257677555385, -23.66714953213904]}, "properties": {"seq": 24, "dist_km": 2.5314, "ele_m": 830.0, "dataset": "srtm90m"}}, {"type": "Feature", "geometry": {"type": "Point", "coordinates": [-46.836508840885664, -23.667804764225046]}, "properties": {"seq": 25, "dist_km": 2.6368, "ele_m": 822.0, "dataset": "srtm90m"}}, {"type": "Feature", "geometry": {"type": "Point", "coordinates": [-46.83576000421594, -23.668459996311054]}, "properties": {"seq": 26, "dist_km": 2.7423, "ele_m": 817.0, "dataset": "srtm90m"}}, {"type": "Feature", "geometry": {"type": "Point", "coordinates": [-46.83501116754622, -23.66911522839706]}, "properties": {"seq": 27, "dist_km": 2.8478, "ele_m": 788.0, "dataset": "srtm90m"}}, {"type": "Feature", "geometry": {"type": "Point", "coordinates": [-46.8342623308765, -23.66977046048307]}, "properties": {"seq": 28, "dist_km": 2.9532, "ele_m": 776.0, "dataset": "srtm90m"}}, {"type": "Feature", "geometry": {"type": "Point", "coordinates": [-46.83351348058511, -23.670425704488032]}, "properties": {"seq": 29, "dist_km": 3.0587, "ele_m": 770.0, "dataset": "srtm90m"}}, {"type": "Feature", "geometry": {"type": "Point", "coordinates": [-46.83276462294872, -23.67108095491987]}, "properties": {"seq": 30, "dist_km": 3.1642, "ele_m": 765.0, "dataset": "srtm90m"}}, {"type": "Feature", "geometry": {"type": "Point", "coordinates": [-46.832015765312335, -23.67173620535171]}, "properties": {"seq": 31, "dist_km": 3.2697, "ele_m": 771.0, "dataset": "srtm90m"}}, {"type": "Feature", "geometry": {"type": "Point", "coordinates": [-46.831266907675946, -23.672391455783547]}, "properties": {"seq": 32, "dist_km": 3.3751, "ele_m": 775.0, "dataset": "srtm90m"}}, {"type": "Feature", "geometry": {"type": "Point", "coordinates": [-46.830518050039565, -23.673046706215384]}, "properties": {"seq": 33, "dist_km": 3.4806, "ele_m": 757.0, "dataset": "srtm90m"}}, {"type": "Feature", "geometry": {"type": "Point", "coordinates": [-46.82976919240318, -23.673701956647225]}, "properties": {"seq": 34, "dist_km": 3.5861, "ele_m": 755.0, "dataset": "srtm90m"}}, {"type": "Feature", "geometry": {"type": "Point", "coordinates": [-46.82902033476679, -23.674357207079062]}, "properties": {"seq": 35, "dist_km": 3.6916, "ele_m": 760.0, "dataset": "srtm90m"}}, {"type": "Feature", "geometry": {"type": "Point", "coordinates": [-46.8282714771304, -23.6750124575109]}, "properties": {"seq": 36, "dist_km": 3.797, "ele_m": 760.0, "dataset": "srtm90m"}}, {"type": "Feature", "geometry": {"type": "Point", "coordinates": [-46.82752261949401, -23.67566770794274]}, "properties": {"seq": 37, "dist_km": 3.9025, "ele_m": 760.0, "dataset": "srtm90m"}}, {"type": "Feature", "geometry": {"type": "Point", "coordinates": [-46.82677376185762, -23.676322958374577]}, "properties": {"seq": 38, "dist_km": 4.008, "ele_m": 764.0, "dataset": "srtm90m"}}, {"type": "Feature", "geometry": {"type": "Point", "coordinates": [-46.82602490422124, -23.676978208806414]}, "properties": {"seq": 39, "dist_km": 4.1134, "ele_m": 764.0, "dataset": "srtm90m"}}, {"type": "Feature", "geometry": {"type": "Point", "coordinates": [-46.825225327520826, -23.677581004359382]}, "properties": {"seq": 40, "dist_km": 4.2189, "ele_m": 762.0, "dataset": "srtm90m"}}, {"type": "Feature", "geometry": {"type": "Point", "coordinates": [-46.82442400606893, -23.678181995448302]}, "properties": {"seq": 41, "dist_km": 4.3244, "ele_m": 762.0, "dataset": "srtm90m"}}, {"type": "Feature", "geometry": {"type": "Point", "coordinates": [-46.823622684617035, -23.67878298653722]}, "properties": {"seq": 42, "dist_km": 4.4299, "ele_m": 761.0, "dataset": "srtm90m"}}, {"type": "Feature", "geometry": {"type": "Point", "coordinates": [-46.82282136316514, -23.679383977626145]}, "properties": {"seq": 43, "dist_km": 4.5353, "ele_m": 759.0, "dataset": "srtm90m"}}, {"type": "Feature", "geometry": {"type": "Point", "coordinates": [-46.822020041713245, -23.679984968715065]}, "properties": {"seq": 44, "dist_km": 4.6408, "ele_m": 756.0, "dataset": "srtm90m"}}, {"type": "Feature", "geometry": {"type": "Point", "coordinates": [-46.82121872026135, -23.680585959803985]}, "properties": {"seq": 45, "dist_km": 4.7463, "ele_m": 773.0, "dataset": "srtm90m"}}, {"type": "Feature", "geometry": {"type": "Point", "coordinates": [-46.82041739880946, -23.681186950892904]}, "properties": {"seq": 46, "dist_km": 4.8518, "ele_m": 798.0, "dataset": "srtm90m"}}, {"type": "Feature", "geometry": {"type": "Point", "coordinates": [-46.819616077357566, -23.681787941981824]}, "properties": {"seq": 47, "dist_km": 4.9572, "ele_m": 791.0, "dataset": "srtm90m"}}, {"type": "Feature", "geometry": {"type": "Point", "coordinates": [-46.81881475590567, -23.682388933070747]}, "properties": {"seq": 48, "dist_km": 5.0627, "ele_m": 792.0, "dataset": "srtm90m"}}, {"type": "Feature", "geometry": {"type": "Point", "coordinates": [-46.818013434453775, -23.682989924159667]}, "properties": {"seq": 49, "dist_km": 5.1682, "ele_m": 802.0, "dataset": "srtm90m"}}, {"type": "Feature", "geometry": {"type": "Point", "coordinates": [-46.817212091340814, -23.68359093149439]}, "properties": {"seq": 50, "dist_km": 5.2737, "ele_m": 782.0, "dataset": "srtm90m"}}, {"type": "Feature", "geometry": {"type": "Point", "coordinates": [-46.8164107478585, -23.684191939106125]}, "properties": {"seq": 51, "dist_km": 5.3791, "ele_m": 769.0, "dataset": "srtm90m"}}, {"type": "Feature", "geometry": {"type": "Point", "coordinates": [-46.81560940437619, -23.68479294671786]}, "properties": {"seq": 52, "dist_km": 5.4846, "ele_m": 766.0, "dataset": "srtm90m"}}, {"type": "Feature", "geometry": {"type": "Point", "coordinates": [-46.814808060893874, -23.685393954329594]}, "properties": {"seq": 53, "dist_km": 5.5901, "ele_m": 777.0, "dataset": "srtm90m"}}, {"type": "Feature", "geometry": {"type": "Point", "coordinates": [-46.814006717411566, -23.68599496194133]}, "properties": {"seq": 54, "dist_km": 5.6955, "ele_m": 774.0, "dataset": "srtm90m"}}, {"type": "Feature", "geometry": {"type": "Point", "coordinates": [-46.81320537392925, -23.686595969553064]}, "properties": {"seq": 55, "dist_km": 5.801, "ele_m": 783.0, "dataset": "srtm90m"}}, {"type": "Feature", "geometry": {"type": "Point", "coordinates": [-46.81240403044694, -23.687196977164795]}, "properties": {"seq": 56, "dist_km": 5.9065, "ele_m": 787.0, "dataset": "srtm90m"}}, {"type": "Feature", "geometry": {"type": "Point", "coordinates": [-46.811602686964626, -23.68779798477653]}, "properties": {"seq": 57, "dist_km": 6.012, "ele_m": 784.0, "dataset": "srtm90m"}}, {"type": "Feature", "geometry": {"type": "Point", "coordinates": [-46.81080134348232, -23.688398992388265]}, "properties": {"seq": 58, "dist_km": 6.1174, "ele_m": 792.0, "dataset": "srtm90m"}}, {"type": "Feature", "geometry": {"type": "Point", "coordinates": [-46.81, -23.689]}, "properties": {"seq": 59, "dist_km": 6.2229, "ele_m": 811.0, "dataset": "srtm90m"}}]}