{"features": [{"geometry": {"coordinates": [-46.820083, -23.671806], "type": "Point"}, "properties": {"datum": "SIRGAS 2000", "fonte": "Atlas original — validar com Prefeitura/Sehab e setores censitários IBGE", "nome": "Baviera", "precisao": "aproximada", "tipo": "assentamento precário/irregular — ponto indicativo"}, "type": "Feature"}, {"geometry": {"coordinates": [-46.865583, -23.669944], "type": "Point"}, "properties": {"datum": "SIRGAS 2000", "fonte": "Atlas original — validar com Prefeitura/Sehab e setores censitários IBGE", "nome": "Orquidófilos", "precisao": "aproximada", "tipo": "assentamento precário/irregular — ponto indicativo"}, "type": "Feature"}, {"geometry": {"coordinates": [-46.838111, -23.627139], "type": "Point"}, "properties": {"datum": "SIRGAS 2000", "fonte": "Atlas original — validar com Prefeitura/Sehab e setores censitários IBGE", "nome": "Dona Branca", "precisao": "aproximada", "tipo": "assentamento precário/irregular — ponto indicativo"}, "type": "Feature"}, {"geometry": {"coordinates": [-46.834222, -23.627333], "type": "Point"}, "properties": {"datum": "SIRGAS 2000", "fonte": "Atlas original — validar com Prefeitura/Sehab e setores censitários IBGE", "nome": "Serra do Mar", "precisao": "aproximada", "tipo": "assentamento precário/irregular — ponto indicativo"}, "type": "Feature"}, {"geometry": {"coordinates": [-46.822278, -23.661472], "type": "Point"}, "properties": {"datum": "SIRGAS 2000", "fonte": "Atlas original — validar com Prefeitura/Sehab e setores censitários IBGE", "nome": "Moraes", "precisao": "aproximada", "tipo": "assentamento precário/irregular — ponto indicativo"}, "type": "Feature"}, {"geometry": {"coordinates": [-46.809028, -23.68125], "type": "Point"}, "properties": {"datum": "SIRGAS 2000", "fonte": "Atlas original — validar com Prefeitura/Sehab e setores censitários IBGE", "nome": "Sereia Sta Rita", "precisao": "aproximada", "tipo": "assentamento precário/irregular — ponto indicativo"}, "type": "Feature"}, {"geometry": {"coordinates": [-46.838056, -23.653611], "type": "Point"}, "properties": {"datum": "SIRGAS 2000", "fonte": "Atlas original — validar com Prefeitura/Sehab e setores censitários IBGE", "nome": "Mario Osassa", "precisao": "aproximada", "tipo": "assentamento precário/irregular — ponto indicativo"}, "type": "Feature"}], "metadata": {"atualizado": "2026-09-22", "datum": "SIRGAS 2000 (EPSG:4674)", "nota_etica": "Pontos indicativos. Evitar estigmatização; cruzar com aglomerados subnormais IBGE e CadÚnico antes de qualquer inferência.", "nota_metodologica": "Não delimita perímetros. Para análise fundiária usar levantamento oficial.", "titulo": "Assentamentos precários/irregulares — pontos indicativos"}, "name": "pontos_irregulares_embu", "type": "FeatureCollection"}
