{"features": [{"geometry": {"coordinates": [[-46.8523, -23.6492], [-46.848, -23.656], [-46.842, -23.663], [-46.834, -23.67], [-46.826, -23.677], [-46.818, -23.683], [-46.81, -23.689]], "type": "LineString"}, "properties": {"datum": "SIRGAS 2000 (EPSG:4674)", "descricao": "Do Centro Histórico ao compartimento horizontal sul, cruzando a zona mista e a borda de mananciais.", "fonte": "Traçado didático do Atlas de Embu das Artes", "hipotese": "O caimento N-S acompanha a transição adensamento vertical/misto (norte, eixo BR-116) para expansão horizontal extensiva (sul, mananciais).", "nome": "Transecto N-S Centro–Mananciais", "precisao": "esquemático"}, "type": "Feature"}], "metadata": {"atualizado": "2026-09-23", "datum": "SIRGAS 2000 (EPSG:4674)", "nota_metodologica": "Linha esquemática de leitura, não logradouro. Amostragem do perfil em data/perfil_n_s.geojson.", "titulo": "Transectos do perfil topográfico — Embu das Artes"}, "name": "transectos_embu", "type": "FeatureCollection"}
