{"features": [{"geometry": {"coordinates": [[-46.8338, -23.6373], [-46.83499, -23.63878], [-46.84954, -23.65549], [-46.85622, -23.67043], [-46.8589, -23.6816]], "type": "LineString"}, "properties": {"classe": "rodovia federal — logística", "cor": "red", "datum": "SIRGAS 2000", "descricao": "LOGÍSTICA km279/282", "fonte": "Vetorização interpretativa; validar com DER/DNIT", "nome": "BR-116 Régis", "peso": 6, "precisao": "eixo esquemático"}, "type": "Feature"}, {"geometry": {"coordinates": [[-46.82973, -23.62506], [-46.83134, -23.63144], [-46.83411, -23.63933], [-46.83439, -23.64206], [-46.8315, -23.65], [-46.8265, -23.66], [-46.8215, -23.67], [-46.81863, -23.68006], [-46.81893, -23.68453], [-46.82068, -23.68934]], "type": "LineString"}, "properties": {"classe": "anel metropolitano — articulação N-S", "cor": "#9c27b0", "datum": "SIRGAS 2000", "descricao": "Traçado contínuo esquemático", "fonte": "Vetorização interpretativa", "nome": "Rodoanel CONTÍNUO N-S", "peso": 5, "precisao": "eixo esquemático"}, "type": "Feature"}, {"geometry": {"coordinates": [[-46.84981, -23.6492], [-46.8495, -23.65088], [-46.85088, -23.65281], [-46.85252, -23.65986]], "type": "LineString"}, "properties": {"classe": "via coletora — economia/turismo", "cor": "#FF6F00", "datum": "SIRGAS 2000", "descricao": "ECONOMIA+TURISMO móveis/Feira", "fonte": "Vetorização interpretativa", "nome": "Yazbek", "peso": 5, "precisao": "eixo esquemático"}, "type": "Feature"}, {"geometry": {"coordinates": [[-46.85894, -23.65018], [-46.86164, -23.64877], [-46.86848, -23.64747], [-46.878, -23.64348]], "type": "LineString"}, "properties": {"classe": "via coletora — moradia oeste", "cor": "#FF6F00", "datum": "SIRGAS 2000", "descricao": "MORADIA oeste", "fonte": "Vetorização interpretativa", "nome": "João Batista Medina", "peso": 5, "precisao": "eixo esquemático"}, "type": "Feature"}, {"geometry": {"coordinates": [[-46.85665, -23.6764], [-46.85776, -23.67945], [-46.85798, -23.68303]], "type": "LineString"}, "properties": {"classe": "via local", "cor": "#FF6F00", "datum": "SIRGAS 2000", "descricao": "", "fonte": "Vetorização interpretativa", "nome": "Salvador de Leone", "peso": 4, "precisao": "eixo esquemático"}, "type": "Feature"}, {"geometry": {"coordinates": [[-46.85227, -23.6492], [-46.85163, -23.6495], [-46.85182, -23.65022]], "type": "LineString"}, "properties": {"classe": "circulação cultural — centro histórico", "cor": "#1976d2", "datum": "SIRGAS 2000", "descricao": "CULTURA", "fonte": "Vetorização interpretativa", "nome": "Centro Histórico", "peso": 4, "precisao": "eixo esquemático"}, "type": "Feature"}], "metadata": {"atualizado": "2026-09-22", "datum": "SIRGAS 2000 (EPSG:4674)", "nota_metodologica": "Eixos esquemáticos para leitura estrutural. Não utilizar para navegação ou cálculo de distâncias oficiais.", "titulo": "Sistema viário estruturante — vetorização didática"}, "name": "viario_embu", "type": "FeatureCollection"}
