{"features": [{"geometry": {"coordinates": [[[-46.92, -23.685], [-46.8, -23.685], [-46.8, -23.665], [-46.92, -23.665], [-46.92, -23.685]]], "type": "Polygon"}, "properties": {"cor_borda": "#F9A825", "cor_preenchimento": "#ffcc00", "hipotese": "Expansão horizontal extensiva, baixa verticalização, pressão sobre mananciais e conurbação ao sul.", "metodo": "Modelo interpretativo didático — não corresponde a zoneamento legal (ver Plano Diretor municipal).", "nome": "Zona horizontal sul — mananciais", "popup": "Horizontal 250k hab / 3,5k hab/km² - sul manancial"}, "type": "Feature"}, {"geometry": {"coordinates": [[[-46.89, -23.665], [-46.83, -23.665], [-46.83, -23.635], [-46.89, -23.635], [-46.89, -23.665]]], "type": "Polygon"}, "properties": {"cor_borda": "#7b1fa2", "cor_preenchimento": "#7b1fa2", "hipotese": "Adensamento misto e verticalização induzidos pela acessibilidade da BR-116 e centralidades econômicas.", "metodo": "Modelo interpretativo didático — não corresponde a zoneamento legal (ver Plano Diretor municipal).", "nome": "Zona mista/vertical — eixo BR-116", "popup": "Mista/vertical eixo BR-116"}, "type": "Feature"}], "metadata": {"atualizado": "2026-09-22", "datum": "SIRGAS 2000 (EPSG:4674)", "nota_metodologica": "Geometrias esquemáticas herdadas do atlas original e convertidas para GeoJSON. Servem à formulação de hipóteses, não à regulação do uso do solo.", "titulo": "Tipologia habitacional — modelo interpretativo"}, "name": "zonas_tipologia_embu", "type": "FeatureCollection"}
